CCSDS_OMM_VERS = 2.0
CREATION_DATE  = 
ORIGINATOR     = 

OBJECT_NAME    = SPACEMOBILE-006
OBJECT_ID      = 2025-309A
CENTER_NAME    = EARTH
REF_FRAME      = TEME
TIME_SYSTEM    = UTC
MEAN_ELEMENT_THEORY = SGP/SGP4

EPOCH          = 2026-01-20T02:48:32.844384
MEAN_MOTION    = 15.17747762
ECCENTRICITY   = .00122349
INCLINATION    = 52.9969
RA_OF_ASC_NODE = 289.4295
ARG_OF_PERICENTER = 43.9483
MEAN_ANOMALY   = 316.2481

EPHEMERIS_TYPE = 0
CLASSIFICATION_TYPE = U
NORAD_CAT_ID   = 67232
ELEMENT_SET_NO = 999
REV_AT_EPOCH   = 410
BSTAR          = -.24112463E-4
MEAN_MOTION_DOT = -.815E-5
MEAN_MOTION_DDOT = 0

CCSDS_OMM_VERS = 2.0
CREATION_DATE  = 
ORIGINATOR     = 

OBJECT_NAME    = LVM3 R/B
OBJECT_ID      = 2025-309B
CENTER_NAME    = EARTH
REF_FRAME      = TEME
TIME_SYSTEM    = UTC
MEAN_ELEMENT_THEORY = SGP/SGP4

EPOCH          = 2026-01-22T07:41:22.388064
MEAN_MOTION    = 15.19840020
ECCENTRICITY   = .00121399
INCLINATION    = 52.9300
RA_OF_ASC_NODE = 278.6793
ARG_OF_PERICENTER = 74.1844
MEAN_ANOMALY   = 286.0487

EPHEMERIS_TYPE = 0
CLASSIFICATION_TYPE = U
NORAD_CAT_ID   = 67233
ELEMENT_SET_NO = 999
REV_AT_EPOCH   = 444
BSTAR          = .46641805E-3
MEAN_MOTION_DOT = .9831E-4
MEAN_MOTION_DDOT = 0

CCSDS_OMM_VERS = 2.0
CREATION_DATE  = 
ORIGINATOR     = 

OBJECT_NAME    = 2025-310A
OBJECT_ID      = 2025-310A
CENTER_NAME    = EARTH
REF_FRAME      = TEME
TIME_SYSTEM    = UTC
MEAN_ELEMENT_THEORY = SGP/SGP4

EPOCH          = 2026-01-22T01:05:58.085088
MEAN_MOTION    = 14.75705289
ECCENTRICITY   = .00024489
INCLINATION    = 97.9666
RA_OF_ASC_NODE = 31.4491
ARG_OF_PERICENTER = 159.6733
MEAN_ANOMALY   = 200.4574

EPHEMERIS_TYPE = 0
CLASSIFICATION_TYPE = U
NORAD_CAT_ID   = 67234
ELEMENT_SET_NO = 999
REV_AT_EPOCH   = 407
BSTAR          = .22701581E-4
MEAN_MOTION_DOT = .105E-5
MEAN_MOTION_DDOT = 0

CCSDS_OMM_VERS = 2.0
CREATION_DATE  = 
ORIGINATOR     = 

OBJECT_NAME    = SL-4 R/B
OBJECT_ID      = 2025-310B
CENTER_NAME    = EARTH
REF_FRAME      = TEME
TIME_SYSTEM    = UTC
MEAN_ELEMENT_THEORY = SGP/SGP4

EPOCH          = 2026-01-22T05:53:56.634432
MEAN_MOTION    = 15.64010587
ECCENTRICITY   = .02471837
INCLINATION    = 97.9596
RA_OF_ASC_NODE = 34.9363
ARG_OF_PERICENTER = 335.7401
MEAN_ANOMALY   = 23.2373

EPHEMERIS_TYPE = 0
CLASSIFICATION_TYPE = U
NORAD_CAT_ID   = 67235
ELEMENT_SET_NO = 999
REV_AT_EPOCH   = 430
BSTAR          = .57859388E-3
MEAN_MOTION_DOT = .303174E-2
MEAN_MOTION_DDOT = .2517419E-5

CCSDS_OMM_VERS = 2.0
CREATION_DATE  = 
ORIGINATOR     = 

OBJECT_NAME    = HULIANWANG DIGUI-128
OBJECT_ID      = 2025-311A
CENTER_NAME    = EARTH
REF_FRAME      = TEME
TIME_SYSTEM    = UTC
MEAN_ELEMENT_THEORY = SGP/SGP4

EPOCH          = 2026-01-19T22:49:48.688608
MEAN_MOTION    = 13.87303514
ECCENTRICITY   = .00002522
INCLINATION    = 50.0140
RA_OF_ASC_NODE = 296.2734
ARG_OF_PERICENTER = 253.4810
MEAN_ANOMALY   = 106.6060

EPHEMERIS_TYPE = 0
CLASSIFICATION_TYPE = U
NORAD_CAT_ID   = 67236
ELEMENT_SET_NO = 999
REV_AT_EPOCH   = 348
BSTAR          = .13468768E-3
MEAN_MOTION_DOT = .14E-6
MEAN_MOTION_DDOT = 0

CCSDS_OMM_VERS = 2.0
CREATION_DATE  = 
ORIGINATOR     = 

OBJECT_NAME    = HULIANWANG DIGUI-129
OBJECT_ID      = 2025-311B
CENTER_NAME    = EARTH
REF_FRAME      = TEME
TIME_SYSTEM    = UTC
MEAN_ELEMENT_THEORY = SGP/SGP4

EPOCH          = 2026-01-18T17:29:33.792576
MEAN_MOTION    = 13.88330463
ECCENTRICITY   = .00030278
INCLINATION    = 50.0108
RA_OF_ASC_NODE = 301.1467
ARG_OF_PERICENTER = 4.8681
MEAN_ANOMALY   = 355.2246

EPHEMERIS_TYPE = 0
CLASSIFICATION_TYPE = U
NORAD_CAT_ID   = 67237
ELEMENT_SET_NO = 999
REV_AT_EPOCH   = 331
BSTAR          = .10227442E-3
MEAN_MOTION_DOT = -.22E-6
MEAN_MOTION_DDOT = 0

CCSDS_OMM_VERS = 2.0
CREATION_DATE  = 
ORIGINATOR     = 

OBJECT_NAME    = HULIANWANG DIGUI-130
OBJECT_ID      = 2025-311C
CENTER_NAME    = EARTH
REF_FRAME      = TEME
TIME_SYSTEM    = UTC
MEAN_ELEMENT_THEORY = SGP/SGP4

EPOCH          = 2026-01-19T23:05:37.156704
MEAN_MOTION    = 13.86351500
ECCENTRICITY   = .00023102
INCLINATION    = 50.0087
RA_OF_ASC_NODE = 296.3440
ARG_OF_PERICENTER = 353.9164
MEAN_ANOMALY   = 6.1704

EPHEMERIS_TYPE = 0
CLASSIFICATION_TYPE = U
NORAD_CAT_ID   = 67238
ELEMENT_SET_NO = 999
REV_AT_EPOCH   = 348
BSTAR          = .14106257E-3
MEAN_MOTION_DOT = .19E-6
MEAN_MOTION_DDOT = 0

CCSDS_OMM_VERS = 2.0
CREATION_DATE  = 
ORIGINATOR     = 

OBJECT_NAME    = HULIANWANG DIGUI-131
OBJECT_ID      = 2025-311D
CENTER_NAME    = EARTH
REF_FRAME      = TEME
TIME_SYSTEM    = UTC
MEAN_ELEMENT_THEORY = SGP/SGP4

EPOCH          = 2026-01-21T14:59:18.731040
MEAN_MOTION    = 13.85113925
ECCENTRICITY   = .00013827
INCLINATION    = 50.0043
RA_OF_ASC_NODE = 289.7812
ARG_OF_PERICENTER = 300.8761
MEAN_ANOMALY   = 59.2000

EPHEMERIS_TYPE = 0
CLASSIFICATION_TYPE = U
NORAD_CAT_ID   = 67239
ELEMENT_SET_NO = 999
REV_AT_EPOCH   = 371
BSTAR          = .18079418E-3
MEAN_MOTION_DOT = .62E-6
MEAN_MOTION_DDOT = 0

CCSDS_OMM_VERS = 2.0
CREATION_DATE  = 
ORIGINATOR     = 

OBJECT_NAME    = HULIANWANG DIGUI-132
OBJECT_ID      = 2025-311E
CENTER_NAME    = EARTH
REF_FRAME      = TEME
TIME_SYSTEM    = UTC
MEAN_ELEMENT_THEORY = SGP/SGP4

EPOCH          = 2026-01-19T12:37:15.759840
MEAN_MOTION    = 13.87274802
ECCENTRICITY   = .00025379
INCLINATION    = 50.0067
RA_OF_ASC_NODE = 298.0251
ARG_OF_PERICENTER = 357.6179
MEAN_ANOMALY   = 2.4706

EPHEMERIS_TYPE = 0
CLASSIFICATION_TYPE = U
NORAD_CAT_ID   = 67240
ELEMENT_SET_NO = 999
REV_AT_EPOCH   = 342
BSTAR          = .12211287E-3
MEAN_MOTION_DOT = -.1E-7
MEAN_MOTION_DDOT = 0

CCSDS_OMM_VERS = 2.0
CREATION_DATE  = 
ORIGINATOR     = 

OBJECT_NAME    = HULIANWANG DIGUI-133
OBJECT_ID      = 2025-311F
CENTER_NAME    = EARTH
REF_FRAME      = TEME
TIME_SYSTEM    = UTC
MEAN_ELEMENT_THEORY = SGP/SGP4

EPOCH          = 2026-01-19T00:27:40.122432
MEAN_MOTION    = 13.87706822
ECCENTRICITY   = .00016546
INCLINATION    = 50.0120
RA_OF_ASC_NODE = 300.0209
ARG_OF_PERICENTER = 358.6211
MEAN_ANOMALY   = 1.4682

EPHEMERIS_TYPE = 0
CLASSIFICATION_TYPE = U
NORAD_CAT_ID   = 67241
ELEMENT_SET_NO = 999
REV_AT_EPOCH   = 335
BSTAR          = .11134555E-3
MEAN_MOTION_DOT = -.13E-6
MEAN_MOTION_DDOT = 0

CCSDS_OMM_VERS = 2.0
CREATION_DATE  = 
ORIGINATOR     = 

OBJECT_NAME    = HULIANWANG DIGUI-134
OBJECT_ID      = 2025-311G
CENTER_NAME    = EARTH
REF_FRAME      = TEME
TIME_SYSTEM    = UTC
MEAN_ELEMENT_THEORY = SGP/SGP4

EPOCH          = 2026-01-19T19:30:47.318688
MEAN_MOTION    = 13.86837554
ECCENTRICITY   = .00005799
INCLINATION    = 50.0123
RA_OF_ASC_NODE = 296.8687
ARG_OF_PERICENTER = 268.9105
MEAN_ANOMALY   = 91.1726

EPHEMERIS_TYPE = 0
CLASSIFICATION_TYPE = U
NORAD_CAT_ID   = 67242
ELEMENT_SET_NO = 999
REV_AT_EPOCH   = 346
BSTAR          = .13742569E-3
MEAN_MOTION_DOT = .16E-6
MEAN_MOTION_DDOT = 0

CCSDS_OMM_VERS = 2.0
CREATION_DATE  = 
ORIGINATOR     = 

OBJECT_NAME    = HULIANWANG DIGUI-135
OBJECT_ID      = 2025-311H
CENTER_NAME    = EARTH
REF_FRAME      = TEME
TIME_SYSTEM    = UTC
MEAN_ELEMENT_THEORY = SGP/SGP4

EPOCH          = 2026-01-19T21:18:51.405408
MEAN_MOTION    = 13.86569610
ECCENTRICITY   = .00006584
INCLINATION    = 50.0065
RA_OF_ASC_NODE = 296.5888
ARG_OF_PERICENTER = 9.9203
MEAN_ANOMALY   = 350.1707

EPHEMERIS_TYPE = 0
CLASSIFICATION_TYPE = U
NORAD_CAT_ID   = 67243
ELEMENT_SET_NO = 999
REV_AT_EPOCH   = 347
BSTAR          = .13091426E-3
MEAN_MOTION_DOT = .8E-7
MEAN_MOTION_DDOT = 0

